{
  "type": "FeatureCollection",
  "name": "landmasses",
  "coordinate_reference_system": "EA-WORLD-1",
  "metadata": {
    "version": "0.1.0",
    "status": "provisional",
    "source_raster": "docs/assets/images/maps/world/world-map-hires.jpg",
    "source_raster_size": [4096, 2730],
    "secondary_source": "world/maps/world-map.svg",
    "trace_method": "manual low-vertex visual trace"
  },
  "features": [
    {
      "type": "Feature",
      "id": "elysion",
      "properties": {
        "id": "elysion",
        "name": "エリュシオン",
        "feature_class": "continent",
        "source_confidence": "canon",
        "geometry_confidence": "estimated",
        "review_status": "provisional",
        "source_center_legacy": [5000, 5000, 0],
        "map_anchor": [4166.7, 4004.0],
        "source_refs": [
          "world/map-data/data/continents.json#elysion",
          "world/map-data/data/pixel-mapping.json#continents.elysion",
          "docs/assets/images/maps/world/world-map-hires.jpg"
        ]
      },
      "geometry": {
        "type": "Polygon",
        "coordinates": [[
          [3070, 3600], [3510, 3300], [4200, 3190], [4870, 3250],
          [5530, 3400], [6050, 3820], [6180, 4430], [6080, 5120],
          [5750, 5750], [5200, 6180], [4470, 6410], [3820, 6240],
          [3330, 5790], [3050, 5200], [2900, 4490], [2960, 3920],
          [3070, 3600]
        ]]
      }
    },
    {
      "type": "Feature",
      "id": "lumiera",
      "properties": {
        "id": "lumiera",
        "name": "リュミエラ",
        "feature_class": "continent",
        "source_confidence": "canon",
        "geometry_confidence": "estimated",
        "review_status": "provisional",
        "source_center_legacy": [7500, 4700, 0],
        "map_anchor": [8137.9, 3613.2],
        "source_refs": [
          "world/map-data/data/continents.json#lumiera",
          "world/map-data/data/pixel-mapping.json#continents.lumiera",
          "docs/assets/images/maps/world/world-map-hires.jpg"
        ]
      },
      "geometry": {
        "type": "Polygon",
        "coordinates": [[
          [6600, 2700], [7000, 2350], [7700, 2260], [8270, 2460],
          [8580, 2910], [8660, 3570], [8530, 4400], [8700, 5200],
          [8480, 6120], [8100, 6790], [7520, 6860], [7010, 6520],
          [6750, 5860], [6660, 5010], [6500, 4310], [6450, 3460],
          [6600, 2700]
        ]]
      }
    },
    {
      "type": "Feature",
      "id": "chaos_ria",
      "properties": {
        "id": "chaos_ria",
        "name": "カオス・リア",
        "feature_class": "continent",
        "source_confidence": "canon",
        "geometry_confidence": "estimated",
        "review_status": "provisional",
        "source_center_legacy": [5000, 7600, 0],
        "map_anchor": [4231.7, 6054.6],
        "source_refs": [
          "world/map-data/data/continents.json#chaos_ria",
          "world/map-data/data/pixel-mapping.json#continents.chaos_ria",
          "docs/assets/images/maps/world/world-map-hires.jpg"
        ]
      },
      "geometry": {
        "type": "Polygon",
        "coordinates": [[
          [3280, 6500], [3760, 6250], [4450, 6190], [5150, 6250],
          [5750, 6500], [6280, 6900], [6480, 7500], [6330, 8150],
          [6040, 8800], [5500, 9300], [4800, 9510], [4100, 9400],
          [3550, 9000], [3250, 8500], [3070, 7850], [3050, 7100],
          [3280, 6500]
        ]]
      }
    },
    {
      "type": "Feature",
      "id": "atlantis",
      "properties": {
        "id": "atlantis",
        "name": "アトランティス",
        "feature_class": "continent",
        "source_confidence": "canon",
        "geometry_confidence": "estimated",
        "review_status": "provisional",
        "source_center_legacy": [2500, 4700, 0],
        "map_anchor": [1171.9, 3906.2],
        "source_refs": [
          "world/map-data/data/continents.json#atlantis",
          "world/map-data/data/pixel-mapping.json#continents.atlantis",
          "docs/assets/images/maps/world/world-map-hires.jpg"
        ]
      },
      "geometry": {
        "type": "Polygon",
        "coordinates": [[
          [900, 2200], [1330, 1850], [1870, 1950], [2300, 2350],
          [2670, 2900], [2840, 3500], [2730, 4200], [2590, 4800],
          [2460, 5400], [2210, 6100], [1830, 6800], [1400, 7160],
          [1040, 6900], [850, 6350], [780, 5600], [680, 4950],
          [630, 4200], [690, 3500], [780, 2800], [900, 2200]
        ]]
      }
    },
    {
      "type": "Feature",
      "id": "grimoire",
      "properties": {
        "id": "grimoire",
        "name": "グリモワール",
        "feature_class": "continent",
        "source_confidence": "canon",
        "geometry_confidence": "estimated",
        "review_status": "provisional",
        "source_center_legacy": [5000, 2200, 0],
        "map_anchor": [3906.2, 1611.4],
        "source_refs": [
          "world/map-data/data/continents.json#grimoire",
          "world/map-data/data/pixel-mapping.json#continents.grimoire",
          "docs/assets/images/maps/world/world-map-hires.jpg"
        ]
      },
      "geometry": {
        "type": "Polygon",
        "coordinates": [[
          [3370, 1250], [3820, 950], [4480, 880], [5100, 1050],
          [5690, 1400], [6010, 1900], [5860, 2400], [5400, 2720],
          [4800, 2870], [4200, 2760], [3700, 2470], [3420, 2050],
          [3290, 1600], [3370, 1250]
        ]]
      }
    }
  ]
}
